CCSDS_OMM_VERS = 2.0
CREATION_DATE  = 
ORIGINATOR     = 

OBJECT_NAME    = CZ-2C R/B
OBJECT_ID      = 2022-132E
CENTER_NAME    = EARTH
REF_FRAME      = TEME
TIME_SYSTEM    = UTC
MEAN_ELEMENT_THEORY = SGP/SGP4

EPOCH          = 2026-01-13T22:56:36.755808
MEAN_MOTION    = 15.57129171
ECCENTRICITY   = .00170703
INCLINATION    = 97.2948
RA_OF_ASC_NODE = 15.8255
ARG_OF_PERICENTER = 297.8190
MEAN_ANOMALY   = 62.1335

EPHEMERIS_TYPE = 0
CLASSIFICATION_TYPE = U
NORAD_CAT_ID   = 54039
ELEMENT_SET_NO = 999
REV_AT_EPOCH   = 18184
BSTAR          = .28119118E-3
MEAN_MOTION_DOT = .20439E-3
MEAN_MOTION_DDOT = 0

CCSDS_OMM_VERS = 2.0
CREATION_DATE  = 
ORIGINATOR     = 

OBJECT_NAME    = GSLV R/B
OBJECT_ID      = 2022-138AN
CENTER_NAME    = EARTH
REF_FRAME      = TEME
TIME_SYSTEM    = UTC
MEAN_ELEMENT_THEORY = SGP/SGP4

EPOCH          = 2026-01-13T18:10:44.621760
MEAN_MOTION    = 14.96329913
ECCENTRICITY   = .00215205
INCLINATION    = 87.3829
RA_OF_ASC_NODE = 184.7492
ARG_OF_PERICENTER = 357.6767
MEAN_ANOMALY   = 2.4361

EPHEMERIS_TYPE = 0
CLASSIFICATION_TYPE = U
NORAD_CAT_ID   = 54149
ELEMENT_SET_NO = 999
REV_AT_EPOCH   = 17571
BSTAR          = .17883801E-3
MEAN_MOTION_DOT = .2059E-4
MEAN_MOTION_DDOT = 0

CCSDS_OMM_VERS = 2.0
CREATION_DATE  = 
ORIGINATOR     = 

OBJECT_NAME    = XRISM
OBJECT_ID      = 2023-137A
CENTER_NAME    = EARTH
REF_FRAME      = TEME
TIME_SYSTEM    = UTC
MEAN_ELEMENT_THEORY = SGP/SGP4

EPOCH          = 2026-01-13T19:35:52.047168
MEAN_MOTION    = 15.10758278
ECCENTRICITY   = .00079509
INCLINATION    = 31.0024
RA_OF_ASC_NODE = 278.3848
ARG_OF_PERICENTER = 210.8515
MEAN_ANOMALY   = 149.1657

EPHEMERIS_TYPE = 0
CLASSIFICATION_TYPE = U
NORAD_CAT_ID   = 57800
ELEMENT_SET_NO = 999
REV_AT_EPOCH   = 12948
BSTAR          = .19884921E-3
MEAN_MOTION_DOT = .3478E-4
MEAN_MOTION_DDOT = 0

CCSDS_OMM_VERS = 2.0
CREATION_DATE  = 
ORIGINATOR     = 

OBJECT_NAME    = ACS3
OBJECT_ID      = 2024-077B
CENTER_NAME    = EARTH
REF_FRAME      = TEME
TIME_SYSTEM    = UTC
MEAN_ELEMENT_THEORY = SGP/SGP4

EPOCH          = 2026-01-13T20:54:48.534912
MEAN_MOTION    = 13.87138315
ECCENTRICITY   = .00600073
INCLINATION    = 97.2415
RA_OF_ASC_NODE = 327.2961
ARG_OF_PERICENTER = 256.4897
MEAN_ANOMALY   = 102.9574

EPHEMERIS_TYPE = 0
CLASSIFICATION_TYPE = U
NORAD_CAT_ID   = 59588
ELEMENT_SET_NO = 999
REV_AT_EPOCH   = 8659
BSTAR          = .12508167E-1
MEAN_MOTION_DOT = .1488E-3
MEAN_MOTION_DDOT = 0

CCSDS_OMM_VERS = 2.0
CREATION_DATE  = 
ORIGINATOR     = 

OBJECT_NAME    = SZ-21 MODULE
OBJECT_ID      = 2025-246C
CENTER_NAME    = EARTH
REF_FRAME      = TEME
TIME_SYSTEM    = UTC
MEAN_ELEMENT_THEORY = SGP/SGP4

EPOCH          = 2026-01-13T17:37:06.898368
MEAN_MOTION    = 15.64448838
ECCENTRICITY   = .00018354
INCLINATION    = 41.4739
RA_OF_ASC_NODE = 180.5961
ARG_OF_PERICENTER = 161.6783
MEAN_ANOMALY   = 198.4124

EPHEMERIS_TYPE = 0
CLASSIFICATION_TYPE = U
NORAD_CAT_ID   = 66515
ELEMENT_SET_NO = 999
REV_AT_EPOCH   = 945
BSTAR          = .22944515E-3
MEAN_MOTION_DOT = .22409E-3
MEAN_MOTION_DDOT = 0

